[{"OBJECT_NAME":"STARLINK-2431","OBJECT_ID":"2021-018BE","EPOCH":"2026-03-09T17:15:23.630400","MEAN_MOTION":15.30199783,"ECCENTRICITY":0.00012288,"INCLINATION":53.1617,"RA_OF_ASC_NODE":216.7805,"ARG_OF_PERICENTER":72.2353,"MEAN_ANOMALY":287.8782,"EPHEMERIS_TYPE":0,"CLASSIFICATION_TYPE":"U","NORAD_CAT_ID":47839,"ELEMENT_SET_NO":999,"REV_AT_EPOCH":27710,"BSTAR":-4.2907816e-5,"MEAN_MOTION_DOT":-1.63e-5,"MEAN_MOTION_DDOT":0},{"OBJECT_NAME":"FENGYUN 1C DEB","OBJECT_ID":"1999-025AQG","EPOCH":"2026-03-09T10:43:06.043872","MEAN_MOTION":15.25746961,"ECCENTRICITY":0.00178142,"INCLINATION":98.9311,"RA_OF_ASC_NODE":250.2123,"ARG_OF_PERICENTER":328.3876,"MEAN_ANOMALY":31.6286,"EPHEMERIS_TYPE":0,"CLASSIFICATION_TYPE":"U","NORAD_CAT_ID":30674,"ELEMENT_SET_NO":999,"REV_AT_EPOCH":98658,"BSTAR":0.015201752,"MEAN_MOTION_DOT":0.00411052,"MEAN_MOTION_DDOT":0}]
